DELTA 2 R/B(1)          
1 20453U 90008B   26053.67082925  .00068742  00000+0  86760-3 0  9992
2 20453  35.6038 273.2539 0088412 118.7350 242.2303 15.53747555923793
COSMOS 2058             
1 20465U 90010A   26053.28683263  .00004282  00000+0  25332-3 0  9994
2 20465  82.4670  62.6023 0010505  35.6457 324.5473 15.11169265939912
SL-14 R/B               
1 20466U 90010B   26053.71369606  .00000379  00000+0  43064-4 0  9991
2 20466  82.5003 281.4589 0019634 353.7658   6.3310 14.83554974926263
SL-14 R/B               
1 20511U 90018B   26053.58207092  .00000480  00000+0  57261-4 0  9992
2 20511  82.5180 237.2127 0017263 138.1612 222.0925 14.82126702920343
HST                     
1 20580U 90037B   26053.54241899  .00008376  00000+0  27912-3 0  9999
2 20580  28.4686 143.3100 0001116 315.7957  44.2549 15.29220122770995
SL-16 R/B               
1 20625U 90046B   26053.21570923  .00000117  00000+0  85199-4 0  9993
2 20625  71.0019 330.4112 0015645 320.9122  39.0869 14.15014645846205
COSMOS 2084             
1 20663U 90055A   26053.64533023  .00003091  00000+0  22673-3 0  9993
2 20663  62.7913  26.8833 0019431 186.5803 173.5046 15.05543753934051
SL-6 R/B(2)             
1 20666U 90055D   26053.67404100  .00002156  00000+0  17106-3 0  9998
2 20666  62.7835 304.9121 0022463 343.1252  16.9097 15.03516111935935
SL-8 R/B                
1 20775U 90078B   26053.85685135  .00018056  00000+0  52992-3 0  9991
2 20775  82.9005 264.6463 0365406  63.7467 300.0818 14.88528215807093
SL-8 R/B                
1 21088U 91006B   26053.65237082  .00000047  00000+0  32066-4 0  9995
2 21088  82.9456 181.2244 0023681  78.6063 298.8604 13.77492545762006
OKEAN-3                 
1 21397U 91039A   26053.78340476  .00003901  00000+0  27474-3 0  9998
2 21397  82.5208 351.2811 0015107  27.4940 332.7083 15.04687269862796
COSMOS 2151             
1 21422U 91042A   26053.80807782  .00001738  00000+0  13722-3 0  9999
2 21422  82.4942  98.0342 0014070 108.1237 252.1521 15.00043514860962
