CCSDS_OMM_VERS = 2.0
CREATION_DATE  = 
ORIGINATOR     = 

OBJECT_NAME    = DELTA 2 R/B(1)
OBJECT_ID      = 1990-008B
CENTER_NAME    = EARTH
REF_FRAME      = TEME
TIME_SYSTEM    = UTC
MEAN_ELEMENT_THEORY = SGP/SGP4

EPOCH          = 2026-02-22T16:05:59.647200
MEAN_MOTION    = 15.53747555
ECCENTRICITY   = .0088412
INCLINATION    = 35.6038
RA_OF_ASC_NODE = 273.2539
ARG_OF_PERICENTER = 118.7350
MEAN_ANOMALY   = 242.2303

EPHEMERIS_TYPE = 0
CLASSIFICATION_TYPE = U
NORAD_CAT_ID   = 20453
ELEMENT_SET_NO = 999
REV_AT_EPOCH   = 92379
BSTAR          = .8676E-3
MEAN_MOTION_DOT = .68742E-3
MEAN_MOTION_DDOT = 0

CCSDS_OMM_VERS = 2.0
CREATION_DATE  = 
ORIGINATOR     = 

OBJECT_NAME    = COSMOS 2058
OBJECT_ID      = 1990-010A
CENTER_NAME    = EARTH
REF_FRAME      = TEME
TIME_SYSTEM    = UTC
MEAN_ELEMENT_THEORY = SGP/SGP4

EPOCH          = 2026-02-22T06:53:02.339232
MEAN_MOTION    = 15.11169265
ECCENTRICITY   = .0010505
INCLINATION    = 82.4670
RA_OF_ASC_NODE = 62.6023
ARG_OF_PERICENTER = 35.6457
MEAN_ANOMALY   = 324.5473

EPHEMERIS_TYPE = 0
CLASSIFICATION_TYPE = U
NORAD_CAT_ID   = 20465
ELEMENT_SET_NO = 999
REV_AT_EPOCH   = 93991
BSTAR          = .25332E-3
MEAN_MOTION_DOT = .4282E-4
MEAN_MOTION_DDOT = 0

CCSDS_OMM_VERS = 2.0
CREATION_DATE  = 
ORIGINATOR     = 

OBJECT_NAME    = SL-14 R/B
OBJECT_ID      = 1990-010B
CENTER_NAME    = EARTH
REF_FRAME      = TEME
TIME_SYSTEM    = UTC
MEAN_ELEMENT_THEORY = SGP/SGP4

EPOCH          = 2026-02-22T17:07:43.339584
MEAN_MOTION    = 14.83554974
ECCENTRICITY   = .0019634
INCLINATION    = 82.5003
RA_OF_ASC_NODE = 281.4589
ARG_OF_PERICENTER = 353.7658
MEAN_ANOMALY   = 6.3310

EPHEMERIS_TYPE = 0
CLASSIFICATION_TYPE = U
NORAD_CAT_ID   = 20466
ELEMENT_SET_NO = 999
REV_AT_EPOCH   = 92626
BSTAR          = .43064E-4
MEAN_MOTION_DOT = .379E-5
MEAN_MOTION_DDOT = 0

CCSDS_OMM_VERS = 2.0
CREATION_DATE  = 
ORIGINATOR     = 

OBJECT_NAME    = SL-14 R/B
OBJECT_ID      = 1990-018B
CENTER_NAME    = EARTH
REF_FRAME      = TEME
TIME_SYSTEM    = UTC
MEAN_ELEMENT_THEORY = SGP/SGP4

EPOCH          = 2026-02-22T13:58:10.927488
MEAN_MOTION    = 14.82126702
ECCENTRICITY   = .0017263
INCLINATION    = 82.5180
RA_OF_ASC_NODE = 237.2127
ARG_OF_PERICENTER = 138.1612
MEAN_ANOMALY   = 222.0925

EPHEMERIS_TYPE = 0
CLASSIFICATION_TYPE = U
NORAD_CAT_ID   = 20511
ELEMENT_SET_NO = 999
REV_AT_EPOCH   = 92034
BSTAR          = .57261E-4
MEAN_MOTION_DOT = .48E-5
MEAN_MOTION_DDOT = 0

CCSDS_OMM_VERS = 2.0
CREATION_DATE  = 
ORIGINATOR     = 

OBJECT_NAME    = HST
OBJECT_ID      = 1990-037B
CENTER_NAME    = EARTH
REF_FRAME      = TEME
TIME_SYSTEM    = UTC
MEAN_ELEMENT_THEORY = SGP/SGP4

EPOCH          = 2026-02-22T13:01:05.000736
MEAN_MOTION    = 15.29220122
ECCENTRICITY   = .0001116
INCLINATION    = 28.4686
RA_OF_ASC_NODE = 143.3100
ARG_OF_PERICENTER = 315.7957
MEAN_ANOMALY   = 44.2549

EPHEMERIS_TYPE = 0
CLASSIFICATION_TYPE = U
NORAD_CAT_ID   = 20580
ELEMENT_SET_NO = 999
REV_AT_EPOCH   = 77099
BSTAR          = .27912E-3
MEAN_MOTION_DOT = .8376E-4
MEAN_MOTION_DDOT = 0

CCSDS_OMM_VERS = 2.0
CREATION_DATE  = 
ORIGINATOR     = 

OBJECT_NAME    = SL-16 R/B
OBJECT_ID      = 1990-046B
CENTER_NAME    = EARTH
REF_FRAME      = TEME
TIME_SYSTEM    = UTC
MEAN_ELEMENT_THEORY = SGP/SGP4

EPOCH          = 2026-02-22T05:10:37.277472
MEAN_MOTION    = 14.15014645
ECCENTRICITY   = .0015645
INCLINATION    = 71.0019
RA_OF_ASC_NODE = 330.4112
ARG_OF_PERICENTER = 320.9122
MEAN_ANOMALY   = 39.0869

EPHEMERIS_TYPE = 0
CLASSIFICATION_TYPE = U
NORAD_CAT_ID   = 20625
ELEMENT_SET_NO = 999
REV_AT_EPOCH   = 84620
BSTAR          = .85199E-4
MEAN_MOTION_DOT = .117E-5
MEAN_MOTION_DDOT = 0

CCSDS_OMM_VERS = 2.0
CREATION_DATE  = 
ORIGINATOR     = 

OBJECT_NAME    = COSMOS 2084
OBJECT_ID      = 1990-055A
CENTER_NAME    = EARTH
REF_FRAME      = TEME
TIME_SYSTEM    = UTC
MEAN_ELEMENT_THEORY = SGP/SGP4

EPOCH          = 2026-02-22T15:29:16.531872
MEAN_MOTION    = 15.05543753
ECCENTRICITY   = .0019431
INCLINATION    = 62.7913
RA_OF_ASC_NODE = 26.8833
ARG_OF_PERICENTER = 186.5803
MEAN_ANOMALY   = 173.5046

EPHEMERIS_TYPE = 0
CLASSIFICATION_TYPE = U
NORAD_CAT_ID   = 20663
ELEMENT_SET_NO = 999
REV_AT_EPOCH   = 93405
BSTAR          = .22673E-3
MEAN_MOTION_DOT = .3091E-4
MEAN_MOTION_DDOT = 0

CCSDS_OMM_VERS = 2.0
CREATION_DATE  = 
ORIGINATOR     = 

OBJECT_NAME    = SL-6 R/B(2)
OBJECT_ID      = 1990-055D
CENTER_NAME    = EARTH
REF_FRAME      = TEME
TIME_SYSTEM    = UTC
MEAN_ELEMENT_THEORY = SGP/SGP4

EPOCH          = 2026-02-22T16:10:37.142400
MEAN_MOTION    = 15.03516111
ECCENTRICITY   = .0022463
INCLINATION    = 62.7835
RA_OF_ASC_NODE = 304.9121
ARG_OF_PERICENTER = 343.1252
MEAN_ANOMALY   = 16.9097

EPHEMERIS_TYPE = 0
CLASSIFICATION_TYPE = U
NORAD_CAT_ID   = 20666
ELEMENT_SET_NO = 999
REV_AT_EPOCH   = 93593
BSTAR          = .17106E-3
MEAN_MOTION_DOT = .2156E-4
MEAN_MOTION_DDOT = 0

CCSDS_OMM_VERS = 2.0
CREATION_DATE  = 
ORIGINATOR     = 

OBJECT_NAME    = SL-8 R/B
OBJECT_ID      = 1990-078B
CENTER_NAME    = EARTH
REF_FRAME      = TEME
TIME_SYSTEM    = UTC
MEAN_ELEMENT_THEORY = SGP/SGP4

EPOCH          = 2026-02-22T20:33:51.956640
MEAN_MOTION    = 14.88528215
ECCENTRICITY   = .0365406
INCLINATION    = 82.9005
RA_OF_ASC_NODE = 264.6463
ARG_OF_PERICENTER = 63.7467
MEAN_ANOMALY   = 300.0818

EPHEMERIS_TYPE = 0
CLASSIFICATION_TYPE = U
NORAD_CAT_ID   = 20775
ELEMENT_SET_NO = 999
REV_AT_EPOCH   = 80709
BSTAR          = .52992E-3
MEAN_MOTION_DOT = .18056E-3
MEAN_MOTION_DDOT = 0

CCSDS_OMM_VERS = 2.0
CREATION_DATE  = 
ORIGINATOR     = 

OBJECT_NAME    = SL-8 R/B
OBJECT_ID      = 1991-006B
CENTER_NAME    = EARTH
REF_FRAME      = TEME
TIME_SYSTEM    = UTC
MEAN_ELEMENT_THEORY = SGP/SGP4

EPOCH          = 2026-02-22T15:39:24.838848
MEAN_MOTION    = 13.77492545
ECCENTRICITY   = .0023681
INCLINATION    = 82.9456
RA_OF_ASC_NODE = 181.2244
ARG_OF_PERICENTER = 78.6063
MEAN_ANOMALY   = 298.8604

EPHEMERIS_TYPE = 0
CLASSIFICATION_TYPE = U
NORAD_CAT_ID   = 21088
ELEMENT_SET_NO = 999
REV_AT_EPOCH   = 76200
BSTAR          = .32066E-4
MEAN_MOTION_DOT = .47E-6
MEAN_MOTION_DDOT = 0

CCSDS_OMM_VERS = 2.0
CREATION_DATE  = 
ORIGINATOR     = 

OBJECT_NAME    = OKEAN-3
OBJECT_ID      = 1991-039A
CENTER_NAME    = EARTH
REF_FRAME      = TEME
TIME_SYSTEM    = UTC
MEAN_ELEMENT_THEORY = SGP/SGP4

EPOCH          = 2026-02-22T18:48:06.171264
MEAN_MOTION    = 15.04687269
ECCENTRICITY   = .0015107
INCLINATION    = 82.5208
RA_OF_ASC_NODE = 351.2811
ARG_OF_PERICENTER = 27.4940
MEAN_ANOMALY   = 332.7083

EPHEMERIS_TYPE = 0
CLASSIFICATION_TYPE = U
NORAD_CAT_ID   = 21397
ELEMENT_SET_NO = 999
REV_AT_EPOCH   = 86279
BSTAR          = .27474E-3
MEAN_MOTION_DOT = .3901E-4
MEAN_MOTION_DDOT = 0

CCSDS_OMM_VERS = 2.0
CREATION_DATE  = 
ORIGINATOR     = 

OBJECT_NAME    = COSMOS 2151
OBJECT_ID      = 1991-042A
CENTER_NAME    = EARTH
REF_FRAME      = TEME
TIME_SYSTEM    = UTC
MEAN_ELEMENT_THEORY = SGP/SGP4

EPOCH          = 2026-02-22T19:23:37.923648
MEAN_MOTION    = 15.00043514
ECCENTRICITY   = .001407
INCLINATION    = 82.4942
RA_OF_ASC_NODE = 98.0342
ARG_OF_PERICENTER = 108.1237
MEAN_ANOMALY   = 252.1521

EPHEMERIS_TYPE = 0
CLASSIFICATION_TYPE = U
NORAD_CAT_ID   = 21422
ELEMENT_SET_NO = 999
REV_AT_EPOCH   = 86096
BSTAR          = .13722E-3
MEAN_MOTION_DOT = .1738E-4
MEAN_MOTION_DDOT = 0

